[{"OBJECT_NAME":"STARLINK-1327","OBJECT_ID":"2020-025AA","EPOCH":"2026-03-10T00:00:02.999808","MEAN_MOTION":15.54084798,"ECCENTRICITY":0.00066285,"INCLINATION":53.0481,"RA_OF_ASC_NODE":65.1345,"ARG_OF_PERICENTER":60.0228,"MEAN_ANOMALY":82.823,"EPHEMERIS_TYPE":0,"CLASSIFICATION_TYPE":"U","NORAD_CAT_ID":45555,"ELEMENT_SET_NO":999,"REV_AT_EPOCH":591,"BSTAR":0.0019393015,"MEAN_MOTION_DOT":0.00129734,"MEAN_MOTION_DDOT":0},{"OBJECT_NAME":"STARLINK-36701","OBJECT_ID":"2026-022L","EPOCH":"2026-03-09T22:00:01.999584","MEAN_MOTION":15.65838761,"ECCENTRICITY":0.00014629,"INCLINATION":97.2848,"RA_OF_ASC_NODE":102.901,"ARG_OF_PERICENTER":69.1747,"MEAN_ANOMALY":319.2305,"EPHEMERIS_TYPE":0,"CLASSIFICATION_TYPE":"U","NORAD_CAT_ID":67658,"ELEMENT_SET_NO":999,"REV_AT_EPOCH":608,"BSTAR":-0.021311483,"MEAN_MOTION_DOT":-0.01911419,"MEAN_MOTION_DDOT":0}]
